[{"OBJECT_NAME":"STARLINK-5634","OBJECT_ID":"2023-014BA","EPOCH":"2026-03-09T19:14:07.061568","MEAN_MOTION":14.98332651,"ECCENTRICITY":0.00034121,"INCLINATION":69.9994,"RA_OF_ASC_NODE":104.2513,"ARG_OF_PERICENTER":269.9293,"MEAN_ANOMALY":90.1475,"EPHEMERIS_TYPE":0,"CLASSIFICATION_TYPE":"U","NORAD_CAT_ID":55439,"ELEMENT_SET_NO":999,"REV_AT_EPOCH":17108,"BSTAR":4.6140367e-5,"MEAN_MOTION_DOT":4.58e-6,"MEAN_MOTION_DDOT":0},{"OBJECT_NAME":"SITRO-AIS 22","OBJECT_ID":"2024-199F","EPOCH":"2026-03-09T22:54:34.366752","MEAN_MOTION":14.95387083,"ECCENTRICITY":0.00134988,"INCLINATION":97.3323,"RA_OF_ASC_NODE":273.3747,"ARG_OF_PERICENTER":41.8157,"MEAN_ANOMALY":318.4094,"EPHEMERIS_TYPE":0,"CLASSIFICATION_TYPE":"U","NORAD_CAT_ID":61740,"ELEMENT_SET_NO":999,"REV_AT_EPOCH":11708,"BSTAR":0.00031759382,"MEAN_MOTION_DOT":3.46e-5,"MEAN_MOTION_DDOT":0}]
